{"type":"FeatureCollection","features":[{"type":"Feature","properties":{"name":"City of Chicago","source":"dissolved from community_areas.geojson"},"geometry":{"type":"Polygon","coordinates":[[[-87.94011,42.00078],[-87.93529,42.00088],[-87.93512,42.00097],[-87.93528,42.00815],[-87.93358,42.00817],[-87.93348,42.00541],[-87.93361,42.00488],[-87.93419,42.00495],[-87.93436,42.00476],[-87.93430,42.00216],[-87.93423,42.00200],[-87.93388,42.00197],[-87.93375,42.00179],[-87.93358,42.00180],[-87.93040,42.00412],[-87.93036,42.00240],[-87.93027,42.00224],[-87.92546,42.00225],[-87.92544,42.00120],[-87.92526,42.00104],[-87.92054,42.00117],[-87.92044,42.00135],[-87.92051,42.00495],[-87.91385,42.00510],[-87.91377,42.00527],[-87.91377,42.00870],[-87.91331,42.00872],[-87.91330,42.00644],[-87.91321,42.00629],[-87.91303,42.00626],[-87.91302,42.00527],[-87.91286,42.00509],[-87.91124,42.00509],[-87.90777,42.00526],[-87.90767,42.00544],[-87.90768,42.00892],[-87.90575,42.00899],[-87.90238,42.00809],[-87.90223,42.00787],[-87.89875,42.00692],[-87.89756,42.00649],[-87.89597,42.00578],[-87.89576,42.00587],[-87.89529,42.00567],[-87.89429,42.00570],[-87.89434,42.00291],[-87.89427,42.00276],[-87.89374,42.00272],[-87.89360,42.00279],[-87.89357,42.00333],[-87.89335,42.00335],[-87.89325,42.00347],[-87.89326,42.00394],[-87.89188,42.00398],[-87.88999,42.00322],[-87.89036,42.00274],[-87.89038,42.00230],[-87.89418,42.00217],[-87.89436,42.00205],[-87.89923,42.00189],[-87.90240,42.00361],[-87.90241,42.00387],[-87.90253,42.00400],[-87.90390,42.00397],[-87.90403,42.00387],[-87.90405,42.00369],[-87.90390,42.00353],[-87.90311,42.00341],[-87.89955,42.00148],[-87.89744,42.00154],[-87.89745,42.00067],[-87.89730,42.00051],[-87.88939,41.99938],[-87.88496,41.99846],[-87.88486,41.99828],[-87.88453,41.99819],[-87.88454,41.99530],[-87.88445,41.99513],[-87.88035,41.99522],[-87.87695,41.98578],[-87.87678,41.98567],[-87.87585,41.98570],[-87.87585,41.98292],[-87.87489,41.98025],[-87.87494,41.98003],[-87.87373,41.97665],[-87.87568,41.97660],[-87.87583,41.97653],[-87.87589,41.97408],[-87.87580,41.97391],[-87.87301,41.97395],[-87.87283,41.97386],[-87.87264,41.97396],[-87.86860,41.97405],[-87.86855,41.97387],[-87.86842,41.97380],[-87.86799,41.97381],[-87.86783,41.97398],[-87.86749,41.97399],[-87.86745,41.97382],[-87.86730,41.97373],[-87.86221,41.97385],[-87.86202,41.97399],[-87.86200,41.97431],[-87.86168,41.97534],[-87.86124,41.97600],[-87.86067,41.97653],[-87.85994,41.97700],[-87.85845,41.97866],[-87.85628,41.98045],[-87.85588,41.98108],[-87.85578,41.98217],[-87.85664,41.98443],[-87.85635,41.98600],[-87.85554,41.98790],[-87.85563,41.98849],[-87.85583,41.98905],[-87.85483,41.98876],[-87.85412,41.98864],[-87.85132,41.98849],[-87.84970,41.98832],[-87.83765,41.98651],[-87.82373,41.98456],[-87.82348,41.98453],[-87.82334,41.98460],[-87.82216,41.99311],[-87.82176,41.99542],[-87.82140,41.99690],[-87.82125,42.01135],[-87.81990,42.01138],[-87.81973,42.01156],[-87.81979,42.01187],[-87.82009,42.01192],[-87.82008,42.01544],[-87.82025,42.01556],[-87.82123,42.01554],[-87.82120,42.01864],[-87.80654,42.01896],[-87.80675,42.00104],[-87.80659,42.00084],[-87.80540,42.00088],[-87.80530,42.00101],[-87.80529,42.00149],[-87.80108,42.00154],[-87.80108,42.00103],[-87.80096,42.00088],[-87.79965,42.00086],[-87.79950,42.00010],[-87.79933,41.99998],[-87.79724,42.00001],[-87.79712,42.00018],[-87.79711,42.00093],[-87.79116,42.00097],[-87.79073,42.00049],[-87.79056,42.00044],[-87.78232,42.00434],[-87.78221,42.00447],[-87.78225,42.00466],[-87.78329,42.00563],[-87.78872,42.01199],[-87.77939,42.01200],[-87.77925,42.01217],[-87.77910,42.01544],[-87.77697,42.01538],[-87.77700,42.01205],[-87.77685,42.01198],[-87.77334,42.01195],[-87.77043,42.00633],[-87.77025,42.00624],[-87.76994,42.00637],[-87.76914,42.00485],[-87.76594,42.00339],[-87.76576,42.00340],[-87.76559,42.00362],[-87.76566,42.00382],[-87.76754,42.00470],[-87.76746,42.00832],[-87.76166,42.00827],[-87.76185,42.00353],[-87.76195,42.00265],[-87.76221,42.00182],[-87.76217,42.00167],[-87.75289,41.99730],[-87.72879,41.99723],[-87.70965,41.99738],[-87.70951,41.99744],[-87.70945,41.99758],[-87.70947,42.00452],[-87.70931,42.01053],[-87.70918,42.01167],[-87.70901,42.01913],[-87.68999,42.01953],[-87.67366,42.01939],[-87.67349,42.01953],[-87.67354,42.01973],[-87.67624,42.02192],[-87.67705,42.02303],[-87.66512,42.02294],[-87.66525,42.02261],[-87.66505,42.02236],[-87.66479,42.02222],[-87.66463,42.02187],[-87.66462,42.02159],[-87.66425,42.02129],[-87.66400,42.02133],[-87.66382,42.02051],[-87.66372,42.02036],[-87.66386,42.02025],[-87.66395,42.01999],[-87.66383,42.01960],[-87.66364,42.01949],[-87.66363,42.01937],[-87.66383,42.01929],[-87.66391,42.01900],[-87.66370,42.01873],[-87.66335,42.01858],[-87.66328,42.01843],[-87.66334,42.01802],[-87.66314,42.01772],[-87.66312,42.01728],[-87.66299,42.01713],[-87.66303,42.01683],[-87.66280,42.01664],[-87.66272,42.01622],[-87.66255,42.01604],[-87.66246,42.01543],[-87.66208,42.01496],[-87.66179,42.01408],[-87.66157,42.01372],[-87.66150,42.01347],[-87.66154,42.01320],[-87.66119,42.01277],[-87.66116,42.01256],[-87.66093,42.01222],[-87.66095,42.01195],[-87.66014,42.01123],[-87.66010,42.01097],[-87.65921,42.01023],[-87.65865,42.00953],[-87.65698,42.00800],[-87.65646,42.00743],[-87.65544,42.00676],[-87.65506,42.00689],[-87.65584,42.00630],[-87.65730,42.00625],[-87.65740,42.00612],[-87.65742,42.00561],[-87.65731,42.00508],[-87.65697,42.00443],[-87.65687,42.00432],[-87.65671,42.00429],[-87.65671,42.00421],[-87.65716,42.00419],[-87.65728,42.00403],[-87.65723,42.00374],[-87.65697,42.00320],[-87.65688,42.00256],[-87.65644,42.00206],[-87.65604,42.00121],[-87.65596,42.00093],[-87.65600,42.00067],[-87.65562,41.99956],[-87.65459,41.99824],[-87.65449,41.99799],[-87.65426,41.99599],[-87.65452,41.99601],[-87.65465,41.99583],[-87.65448,41.99536],[-87.65455,41.99468],[-87.65439,41.99453],[-87.65426,41.99410],[-87.65428,41.99388],[-87.65444,41.99373],[-87.65446,41.99336],[-87.65431,41.99311],[-87.65409,41.99300],[-87.65430,41.99179],[-87.65432,41.99101],[-87.65423,41.99086],[-87.65418,41.99022],[-87.65425,41.98837],[-87.65353,41.98756],[-87.65097,41.98572],[-87.64991,41.98548],[-87.64935,41.98639],[-87.65029,41.98450],[-87.65062,41.98351],[-87.65074,41.98248],[-87.65063,41.98053],[-87.65022,41.97972],[-87.65033,41.97958],[-87.65029,41.97941],[-87.64976,41.97890],[-87.64877,41.97815],[-87.64854,41.97785],[-87.64736,41.97776],[-87.64668,41.97751],[-87.64611,41.97780],[-87.64648,41.97756],[-87.64655,41.97742],[-87.64636,41.97685],[-87.64624,41.97333],[-87.64600,41.97250],[-87.64532,41.97125],[-87.64464,41.97031],[-87.64367,41.96924],[-87.64152,41.96752],[-87.64048,41.96692],[-87.63899,41.96656],[-87.63741,41.96603],[-87.63587,41.96566],[-87.63298,41.96535],[-87.63224,41.96514],[-87.63210,41.96516],[-87.63200,41.96530],[-87.63197,41.96608],[-87.63179,41.96684],[-87.63147,41.96756],[-87.63096,41.96841],[-87.63101,41.96859],[-87.63114,41.96872],[-87.63162,41.96876],[-87.63188,41.96852],[-87.63187,41.96833],[-87.63175,41.96818],[-87.63182,41.96814],[-87.63196,41.96833],[-87.63196,41.96854],[-87.63177,41.96877],[-87.63140,41.96885],[-87.63107,41.96876],[-87.63088,41.96854],[-87.63090,41.96829],[-87.63134,41.96763],[-87.63163,41.96701],[-87.63190,41.96591],[-87.63189,41.96495],[-87.63169,41.96409],[-87.63121,41.96368],[-87.63099,41.96323],[-87.63107,41.96284],[-87.63145,41.96245],[-87.63344,41.96175],[-87.63422,41.96138],[-87.63599,41.95989],[-87.63664,41.95953],[-87.63745,41.95936],[-87.63854,41.95937],[-87.63998,41.95964],[-87.64013,41.95956],[-87.64030,41.95919],[-87.64036,41.95920],[-87.64024,41.95963],[-87.64080,41.95997],[-87.64093,41.96023],[-87.64094,41.96048],[-87.64073,41.96078],[-87.64038,41.96090],[-87.63931,41.96039],[-87.63881,41.96028],[-87.63786,41.96035],[-87.63702,41.96060],[-87.63605,41.96117],[-87.63540,41.96193],[-87.63532,41.96213],[-87.63536,41.96241],[-87.63572,41.96276],[-87.63613,41.96287],[-87.63683,41.96287],[-87.63777,41.96276],[-87.63789,41.96269],[-87.63850,41.96267],[-87.64125,41.96233],[-87.64165,41.96221],[-87.64199,41.96197],[-87.64220,41.96168],[-87.64229,41.96138],[-87.64219,41.96095],[-87.64167,41.96044],[-87.64152,41.96018],[-87.64155,41.95947],[-87.64143,41.95938],[-87.64102,41.95935],[-87.64102,41.95929],[-87.64148,41.95931],[-87.64162,41.95923],[-87.64174,41.95837],[-87.64128,41.95585],[-87.64101,41.95476],[-87.64061,41.95370],[-87.64048,41.95360],[-87.63984,41.95201],[-87.63863,41.94942],[-87.63790,41.94800],[-87.63688,41.94655],[-87.63505,41.94447],[-87.63310,41.94268],[-87.63300,41.94254],[-87.63302,41.94234],[-87.63336,41.94214],[-87.63370,41.94221],[-87.63387,41.94238],[-87.63406,41.94291],[-87.63448,41.94318],[-87.63483,41.94318],[-87.63548,41.94290],[-87.63597,41.94301],[-87.63618,41.94324],[-87.63696,41.94489],[-87.63690,41.94516],[-87.63743,41.94582],[-87.63887,41.94630],[-87.64006,41.94639],[-87.64021,41.94620],[-87.64001,41.94587],[-87.64014,41.94558],[-87.64012,41.94538],[-87.64043,41.94519],[-87.64049,41.94495],[-87.63961,41.94363],[-87.63911,41.94337],[-87.63871,41.94293],[-87.63851,41.94250],[-87.63834,41.94128],[-87.63725,41.94000],[-87.63703,41.94003],[-87.63695,41.94025],[-87.63673,41.94023],[-87.63677,41.93991],[-87.63666,41.93975],[-87.63584,41.93977],[-87.63567,41.93966],[-87.63550,41.93971],[-87.63498,41.94015],[-87.63487,41.94054],[-87.63497,41.94068],[-87.63517,41.94071],[-87.63515,41.94085],[-87.63494,41.94076],[-87.63477,41.94084],[-87.63469,41.94141],[-87.63447,41.94164],[-87.63445,41.94186],[-87.63434,41.94186],[-87.63390,41.94149],[-87.63385,41.94038],[-87.63355,41.93936],[-87.63299,41.93809],[-87.63229,41.93723],[-87.63234,41.93707],[-87.63209,41.93583],[-87.63143,41.93480],[-87.63044,41.93366],[-87.63047,41.93332],[-87.63070,41.93301],[-87.63066,41.93253],[-87.63083,41.93248],[-87.63092,41.93236],[-87.63067,41.93176],[-87.63095,41.93080],[-87.63101,41.93009],[-87.63083,41.92901],[-87.63039,41.92808],[-87.63048,41.92797],[-87.63048,41.92782],[-87.62979,41.92708],[-87.62961,41.92667],[-87.62960,41.92635],[-87.62970,41.92609],[-87.62994,41.92609],[-87.63026,41.92575],[-87.63019,41.92468],[-87.62994,41.92355],[-87.62971,41.92330],[-87.62900,41.92279],[-87.62838,41.92311],[-87.62833,41.92307],[-87.62932,41.92249],[-87.62940,41.92238],[-87.62938,41.92222],[-87.62882,41.92145],[-87.62846,41.92109],[-87.62775,41.92140],[-87.62770,41.92136],[-87.62876,41.92085],[-87.62885,41.92067],[-87.62855,41.92011],[-87.62800,41.91958],[-87.62784,41.91956],[-87.62735,41.91979],[-87.62732,41.91974],[-87.62827,41.91926],[-87.62831,41.91907],[-87.62815,41.91880],[-87.62737,41.91808],[-87.62722,41.91808],[-87.62683,41.91830],[-87.62680,41.91825],[-87.62773,41.91770],[-87.62780,41.91757],[-87.62776,41.91744],[-87.62674,41.91650],[-87.62658,41.91651],[-87.62608,41.91683],[-87.62604,41.91679],[-87.62667,41.91632],[-87.62665,41.91616],[-87.62639,41.91586],[-87.62617,41.91567],[-87.62580,41.91552],[-87.62500,41.91482],[-87.62411,41.91423],[-87.62319,41.91377],[-87.62243,41.91357],[-87.62173,41.91352],[-87.62111,41.91360],[-87.62071,41.91378],[-87.62036,41.91371],[-87.62019,41.91397],[-87.62023,41.91461],[-87.62052,41.91480],[-87.62098,41.91478],[-87.62049,41.91485],[-87.62028,41.91475],[-87.62015,41.91458],[-87.62016,41.91386],[-87.62049,41.91336],[-87.62115,41.91302],[-87.62252,41.91281],[-87.62328,41.91247],[-87.62461,41.91144],[-87.62470,41.91079],[-87.62509,41.91025],[-87.62508,41.90910],[-87.62481,41.90756],[-87.62355,41.90396],[-87.62305,41.90363],[-87.62251,41.90310],[-87.62194,41.90239],[-87.62176,41.90201],[-87.61988,41.90154],[-87.61923,41.90109],[-87.61491,41.89467],[-87.61370,41.89318],[-87.61262,41.89340],[-87.61214,41.89333],[-87.61200,41.89338],[-87.61015,41.89622],[-87.60243,41.89637],[-87.60234,41.89621],[-87.60229,41.89331],[-87.60235,41.89326],[-87.60963,41.89314],[-87.60981,41.89298],[-87.60977,41.89232],[-87.60959,41.89222],[-87.60103,41.89236],[-87.60074,41.89244],[-87.60059,41.89241],[-87.60041,41.89224],[-87.59854,41.89227],[-87.59852,41.89145],[-87.60040,41.89141],[-87.60054,41.89130],[-87.60056,41.89111],[-87.60069,41.89107],[-87.60101,41.89114],[-87.60942,41.89099],[-87.60952,41.89080],[-87.60944,41.88945],[-87.60929,41.88938],[-87.60766,41.88936],[-87.60765,41.88879],[-87.60752,41.88865],[-87.60519,41.88871],[-87.60469,41.88866],[-87.60465,41.88845],[-87.60451,41.88836],[-87.60252,41.88838],[-87.60245,41.88831],[-87.60518,41.88819],[-87.60790,41.88817],[-87.60974,41.88797],[-87.60987,41.88781],[-87.60993,41.88701],[-87.60998,41.88408],[-87.61259,41.88405],[-87.61272,41.88393],[-87.61290,41.88335],[-87.61344,41.88289],[-87.61433,41.88256],[-87.61592,41.88239],[-87.61633,41.88211],[-87.61650,41.88172],[-87.61648,41.88153],[-87.61637,41.88142],[-87.61575,41.88141],[-87.61572,41.88057],[-87.61631,41.88054],[-87.61647,41.88036],[-87.61646,41.87992],[-87.61637,41.87977],[-87.61633,41.87792],[-87.61618,41.87566],[-87.61624,41.87385],[-87.61620,41.87197],[-87.61626,41.87151],[-87.61617,41.86892],[-87.61529,41.86831],[-87.61476,41.86832],[-87.61431,41.86846],[-87.61380,41.86850],[-87.61321,41.86847],[-87.61277,41.86830],[-87.61250,41.86807],[-87.61234,41.86775],[-87.61236,41.86738],[-87.61260,41.86697],[-87.61257,41.86684],[-87.61244,41.86676],[-87.60781,41.86685],[-87.60731,41.86714],[-87.60675,41.86724],[-87.60635,41.86718],[-87.60600,41.86702],[-87.60574,41.86678],[-87.60563,41.86654],[-87.60565,41.86611],[-87.60604,41.86561],[-87.60604,41.86479],[-87.60629,41.86478],[-87.60632,41.86498],[-87.60655,41.86517],[-87.60681,41.86520],[-87.60735,41.86481],[-87.60757,41.86428],[-87.60752,41.86383],[-87.60697,41.86241],[-87.60669,41.86219],[-87.60653,41.86220],[-87.60635,41.86207],[-87.60608,41.86207],[-87.60602,41.86199],[-87.60596,41.86008],[-87.60683,41.86005],[-87.60700,41.85997],[-87.60706,41.85983],[-87.60660,41.85357],[-87.60651,41.85335],[-87.60900,41.85318],[-87.60958,41.85339],[-87.60989,41.85377],[-87.60991,41.85403],[-87.60933,41.85680],[-87.60941,41.85701],[-87.60976,41.85737],[-87.60992,41.85765],[-87.60999,41.85808],[-87.60988,41.85865],[-87.61001,41.85888],[-87.61047,41.85927],[-87.61036,41.85987],[-87.61045,41.86012],[-87.61066,41.86020],[-87.61067,41.86064],[-87.61045,41.86076],[-87.61035,41.86097],[-87.61036,41.86139],[-87.61022,41.86148],[-87.60989,41.86211],[-87.60964,41.86347],[-87.60979,41.86424],[-87.61017,41.86503],[-87.61044,41.86531],[-87.61051,41.86579],[-87.61067,41.86586],[-87.61259,41.86579],[-87.61266,41.86565],[-87.61265,41.86527],[-87.61280,41.86517],[-87.61325,41.86413],[-87.61345,41.86308],[-87.61325,41.86237],[-87.61286,41.86167],[-87.61256,41.86137],[-87.61253,41.86090],[-87.61240,41.86069],[-87.61220,41.86063],[-87.61215,41.86034],[-87.61218,41.86017],[-87.61237,41.86010],[-87.61243,41.85995],[-87.61220,41.85926],[-87.61218,41.85858],[-87.61272,41.85835],[-87.61304,41.85759],[-87.61305,41.85703],[-87.61284,41.85634],[-87.61247,41.85584],[-87.61142,41.85515],[-87.61116,41.85486],[-87.61102,41.85450],[-87.61093,41.85370],[-87.61071,41.85307],[-87.61037,41.85250],[-87.60938,41.85128],[-87.60922,41.85091],[-87.60919,41.85045],[-87.60951,41.84882],[-87.60948,41.84806],[-87.60932,41.84763],[-87.60853,41.84657],[-87.60840,41.84606],[-87.60853,41.84560],[-87.60908,41.84486],[-87.60915,41.84434],[-87.60891,41.84395],[-87.60875,41.84335],[-87.60801,41.84230],[-87.60794,41.84125],[-87.60752,41.84060],[-87.60698,41.84066],[-87.60667,41.84056],[-87.60671,41.84050],[-87.60700,41.84059],[-87.60730,41.84053],[-87.60740,41.84044],[-87.60742,41.84029],[-87.60718,41.83962],[-87.60658,41.83921],[-87.60614,41.83867],[-87.60473,41.83896],[-87.60430,41.83954],[-87.60427,41.83982],[-87.60418,41.83982],[-87.60419,41.83955],[-87.60466,41.83888],[-87.60598,41.83858],[-87.60612,41.83841],[-87.60607,41.83729],[-87.60584,41.83644],[-87.60529,41.83567],[-87.60455,41.83499],[-87.60454,41.83481],[-87.60499,41.83437],[-87.60486,41.83378],[-87.60456,41.83336],[-87.60435,41.83319],[-87.60393,41.83304],[-87.60335,41.83296],[-87.60301,41.83273],[-87.60270,41.83233],[-87.60276,41.83179],[-87.60270,41.83136],[-87.60238,41.83068],[-87.60163,41.82997],[-87.59998,41.82794],[-87.59825,41.82679],[-87.59775,41.82633],[-87.59757,41.82605],[-87.59748,41.82564],[-87.59769,41.82457],[-87.59763,41.82404],[-87.59733,41.82320],[-87.59724,41.82269],[-87.59701,41.82221],[-87.59605,41.82113],[-87.59570,41.82055],[-87.59565,41.82034],[-87.59515,41.81985],[-87.59462,41.81969],[-87.59347,41.81880],[-87.59261,41.81833],[-87.59219,41.81768],[-87.59211,41.81650],[-87.59172,41.81604],[-87.59145,41.81595],[-87.59088,41.81499],[-87.59045,41.81464],[-87.59022,41.81377],[-87.59001,41.81350],[-87.58964,41.81311],[-87.58913,41.81281],[-87.58863,41.81219],[-87.58830,41.81204],[-87.58770,41.81198],[-87.58734,41.81185],[-87.58693,41.81117],[-87.58703,41.81063],[-87.58692,41.81010],[-87.58627,41.80919],[-87.58610,41.80884],[-87.58609,41.80863],[-87.58515,41.80721],[-87.58451,41.80661],[-87.58289,41.80558],[-87.58127,41.80431],[-87.58103,41.80421],[-87.58066,41.80420],[-87.58004,41.80384],[-87.58003,41.80354],[-87.58035,41.80304],[-87.58028,41.80286],[-87.58044,41.80214],[-87.58049,41.80111],[-87.58028,41.79963],[-87.57978,41.79844],[-87.57977,41.79820],[-87.57913,41.79763],[-87.57811,41.79697],[-87.57733,41.79685],[-87.57650,41.79704],[-87.57614,41.79703],[-87.57570,41.79691],[-87.57527,41.79660],[-87.57516,41.79618],[-87.57544,41.79544],[-87.57577,41.79533],[-87.57617,41.79508],[-87.57665,41.79504],[-87.57691,41.79510],[-87.57782,41.79492],[-87.57831,41.79472],[-87.57896,41.79424],[-87.57929,41.79355],[-87.57932,41.79257],[-87.57961,41.79205],[-87.57927,41.79143],[-87.57867,41.79066],[-87.57837,41.79004],[-87.57746,41.78929],[-87.57632,41.78856],[-87.57631,41.78850],[-87.57711,41.78832],[-87.57715,41.78810],[-87.57727,41.78796],[-87.57733,41.78718],[-87.57723,41.78647],[-87.57699,41.78568],[-87.57609,41.78365],[-87.57419,41.78262],[-87.57247,41.78189],[-87.57060,41.78139],[-87.56969,41.78129],[-87.56851,41.78157],[-87.56839,41.78167],[-87.56764,41.78461],[-87.56753,41.78459],[-87.56830,41.78153],[-87.57127,41.78084],[-87.57288,41.78031],[-87.57300,41.78014],[-87.57295,41.77982],[-87.57412,41.77952],[-87.57444,41.77936],[-87.57474,41.77909],[-87.57516,41.77825],[-87.57530,41.77742],[-87.57513,41.77688],[-87.57460,41.77615],[-87.57471,41.77590],[-87.57467,41.77573],[-87.57414,41.77553],[-87.57341,41.77550],[-87.57207,41.77579],[-87.57193,41.77587],[-87.57180,41.77620],[-87.57176,41.77663],[-87.57227,41.77728],[-87.57246,41.77736],[-87.57264,41.77733],[-87.57290,41.77777],[-87.57336,41.77830],[-87.57336,41.77889],[-87.57321,41.77919],[-87.57265,41.77932],[-87.57216,41.77918],[-87.57206,41.77889],[-87.57183,41.77860],[-87.57156,41.77846],[-87.56995,41.77704],[-87.56929,41.77674],[-87.56880,41.77640],[-87.56812,41.77569],[-87.56681,41.77398],[-87.56635,41.77372],[-87.56623,41.77341],[-87.56593,41.77313],[-87.56501,41.77254],[-87.56407,41.77211],[-87.56358,41.77202],[-87.56343,41.77098],[-87.56327,41.77043],[-87.56251,41.76942],[-87.56231,41.76899],[-87.56128,41.76854],[-87.56051,41.76839],[-87.56019,41.76853],[-87.55953,41.76917],[-87.55941,41.76861],[-87.55950,41.76791],[-87.55942,41.76765],[-87.55939,41.76678],[-87.55956,41.76656],[-87.56017,41.76644],[-87.56050,41.76617],[-87.56062,41.76577],[-87.56051,41.76540],[-87.56008,41.76499],[-87.55983,41.76495],[-87.55959,41.76472],[-87.55951,41.76451],[-87.55962,41.76427],[-87.55943,41.76407],[-87.55895,41.76379],[-87.55845,41.76401],[-87.55757,41.76311],[-87.55764,41.76295],[-87.55756,41.76280],[-87.55687,41.76243],[-87.55663,41.76220],[-87.55565,41.76159],[-87.55528,41.76161],[-87.55480,41.76177],[-87.55441,41.76112],[-87.55404,41.76076],[-87.55223,41.75997],[-87.54955,41.75895],[-87.54869,41.75872],[-87.54798,41.75867],[-87.54696,41.75876],[-87.54606,41.75909],[-87.54545,41.75939],[-87.54428,41.76018],[-87.54419,41.76031],[-87.54423,41.76048],[-87.54443,41.76061],[-87.54649,41.76064],[-87.54431,41.76064],[-87.54256,41.75913],[-87.54254,41.75866],[-87.54171,41.75788],[-87.54114,41.75779],[-87.54059,41.75727],[-87.54393,41.75523],[-87.54394,41.75502],[-87.54413,41.75484],[-87.54415,41.75461],[-87.54439,41.75411],[-87.54378,41.75268],[-87.54349,41.75222],[-87.54302,41.75192],[-87.54113,41.75193],[-87.54043,41.75184],[-87.53735,41.75071],[-87.53547,41.74987],[-87.53208,41.74859],[-87.53094,41.74802],[-87.53057,41.74604],[-87.52999,41.74198],[-87.53003,41.74176],[-87.52983,41.74145],[-87.52947,41.74139],[-87.52446,41.74146],[-87.52446,41.74138],[-87.52984,41.74132],[-87.53069,41.74111],[-87.53965,41.74101],[-87.53979,41.74095],[-87.53985,41.74081],[-87.53980,41.74058],[-87.53963,41.74049],[-87.52985,41.74060],[-87.52943,41.73755],[-87.52907,41.73421],[-87.52895,41.73376],[-87.52942,41.73255],[-87.52941,41.73238],[-87.52906,41.73207],[-87.52522,41.73152],[-87.52494,41.73140],[-87.52468,41.73109],[-87.52446,41.72189],[-87.52450,41.72179],[-87.52471,41.72177],[-87.52490,41.72160],[-87.52488,41.72142],[-87.52470,41.72125],[-87.52481,41.72117],[-87.52509,41.72132],[-87.52528,41.72114],[-87.52527,41.72095],[-87.52508,41.72084],[-87.52513,41.72073],[-87.52537,41.72075],[-87.52551,41.72062],[-87.52560,41.71944],[-87.52554,41.71898],[-87.52528,41.71848],[-87.52491,41.71806],[-87.52450,41.71798],[-87.52446,41.71740],[-87.52575,41.71733],[-87.52666,41.71703],[-87.52680,41.71687],[-87.52700,41.71693],[-87.52721,41.71686],[-87.52827,41.71614],[-87.52864,41.71573],[-87.52870,41.71543],[-87.52855,41.71486],[-87.52813,41.71424],[-87.52770,41.71341],[-87.52741,41.71307],[-87.52659,41.71244],[-87.52637,41.71244],[-87.52523,41.71336],[-87.52516,41.71332],[-87.52819,41.71096],[-87.52822,41.71070],[-87.52720,41.71003],[-87.52655,41.70983],[-87.52619,41.70986],[-87.52600,41.71006],[-87.52599,41.71034],[-87.52574,41.71040],[-87.52545,41.71013],[-87.52503,41.70994],[-87.52455,41.70956],[-87.52418,41.70942],[-87.52413,41.70933],[-87.52467,41.70924],[-87.52496,41.70885],[-87.52488,41.70866],[-87.52453,41.70848],[-87.52452,41.70260],[-87.52516,41.64454],[-87.57724,41.64470],[-87.59528,41.64459],[-87.61721,41.64458],[-87.61725,41.65018],[-87.61738,41.65028],[-87.62031,41.65088],[-87.61944,41.65265],[-87.61889,41.65409],[-87.61848,41.65555],[-87.61775,41.65890],[-87.61780,41.65903],[-87.61793,41.65910],[-87.61968,41.65906],[-87.61945,41.65954],[-87.61938,41.66007],[-87.61951,41.66076],[-87.61986,41.66114],[-87.62202,41.66213],[-87.62205,41.66230],[-87.62217,41.66240],[-87.62327,41.66239],[-87.62400,41.66223],[-87.62440,41.66224],[-87.62626,41.66165],[-87.62776,41.66058],[-87.62914,41.65932],[-87.62972,41.65901],[-87.63073,41.65829],[-87.63082,41.65817],[-87.63081,41.65795],[-87.63090,41.65790],[-87.63125,41.65781],[-87.63142,41.65794],[-87.63202,41.65789],[-87.63300,41.65752],[-87.63573,41.65734],[-87.63856,41.65771],[-87.64104,41.65777],[-87.64122,41.65789],[-87.64142,41.65777],[-87.64402,41.65771],[-87.64590,41.65777],[-87.64698,41.65763],[-87.64721,41.66315],[-87.64162,41.66324],[-87.64144,41.66337],[-87.64169,41.67045],[-87.64186,41.67053],[-87.65828,41.67028],[-87.66114,41.67033],[-87.66138,41.67735],[-87.66152,41.67753],[-87.66667,41.67743],[-87.66681,41.67732],[-87.66731,41.67596],[-87.66840,41.67618],[-87.66804,41.67718],[-87.66807,41.67732],[-87.66822,41.67741],[-87.67849,41.67722],[-87.68169,41.67730],[-87.68620,41.67720],[-87.68578,41.67820],[-87.68557,41.67915],[-87.68576,41.68440],[-87.68591,41.68447],[-87.69562,41.68433],[-87.69575,41.68788],[-87.69593,41.68807],[-87.69661,41.68798],[-87.69939,41.68788],[-87.69946,41.68772],[-87.69939,41.68614],[-87.70043,41.68613],[-87.70060,41.68600],[-87.70055,41.68426],[-87.70533,41.68414],[-87.70540,41.68398],[-87.70528,41.68057],[-87.70992,41.68054],[-87.71013,41.68046],[-87.71135,41.68044],[-87.71138,41.68111],[-87.71157,41.68127],[-87.71159,41.68183],[-87.71142,41.68202],[-87.71149,41.68389],[-87.71168,41.68409],[-87.73944,41.68363],[-87.73973,41.69085],[-87.73638,41.69102],[-87.72052,41.69131],[-87.72035,41.69141],[-87.72112,41.71316],[-87.71257,41.71329],[-87.71249,41.71156],[-87.71234,41.71147],[-87.71129,41.71149],[-87.71113,41.70626],[-87.71100,41.70609],[-87.70153,41.70617],[-87.70133,41.70634],[-87.70137,41.70705],[-87.70120,41.70708],[-87.69161,41.70723],[-87.69153,41.70741],[-87.69172,41.71356],[-87.68191,41.71371],[-87.68185,41.71412],[-87.68253,41.73542],[-87.68267,41.73552],[-87.68299,41.73552],[-87.74106,41.73452],[-87.74093,41.73580],[-87.74093,41.73686],[-87.74185,41.76258],[-87.74213,41.77418],[-87.74220,41.77470],[-87.74236,41.77477],[-87.80080,41.77369],[-87.80087,41.77694],[-87.80153,41.79219],[-87.80162,41.79799],[-87.79718,41.79940],[-87.76479,41.80003],[-87.75293,41.80018],[-87.75279,41.80024],[-87.75274,41.80057],[-87.75307,41.81331],[-87.74471,41.81596],[-87.74465,41.81611],[-87.74476,41.82203],[-87.73868,41.82211],[-87.73849,41.82228],[-87.73880,41.83654],[-87.73893,41.83672],[-87.73898,41.83838],[-87.73910,41.83855],[-87.74001,41.86587],[-87.74017,41.86595],[-87.77413,41.86545],[-87.77563,41.90916],[-87.77579,41.90925],[-87.78305,41.90917],[-87.80574,41.90883],[-87.80661,41.93431],[-87.80674,41.93449],[-87.81639,41.93431],[-87.81651,41.93775],[-87.81669,41.93793],[-87.84961,41.93728],[-87.85066,41.93808],[-87.85163,41.93894],[-87.85211,41.93979],[-87.85253,41.94126],[-87.85307,41.94259],[-87.85301,41.94335],[-87.85326,41.94376],[-87.85382,41.94584],[-87.85408,41.94655],[-87.85497,41.94803],[-87.85501,41.94893],[-87.85493,41.94948],[-87.85432,41.95073],[-87.85407,41.95144],[-87.84670,41.95166],[-87.84662,41.95183],[-87.84660,41.95550],[-87.84666,41.95562],[-87.84680,41.95568],[-87.85807,41.95544],[-87.85825,41.95558],[-87.85852,41.95600],[-87.85877,41.95692],[-87.85871,41.95753],[-87.85757,41.95919],[-87.85582,41.96241],[-87.85567,41.96286],[-87.85550,41.96446],[-87.85486,41.96636],[-87.85477,41.96717],[-87.85498,41.96793],[-87.85502,41.96870],[-87.85477,41.96942],[-87.85431,41.97031],[-87.85413,41.97116],[-87.85426,41.97160],[-87.85445,41.97188],[-87.85515,41.97245],[-87.85584,41.97258],[-87.85658,41.97246],[-87.85747,41.97214],[-87.85854,41.97153],[-87.85892,41.97142],[-87.85974,41.97159],[-87.86042,41.97192],[-87.86133,41.97260],[-87.86188,41.97326],[-87.86201,41.97331],[-87.88067,41.97283],[-87.88077,41.97266],[-87.88083,41.96550],[-87.88078,41.95720],[-87.88163,41.95711],[-87.88369,41.95734],[-87.88385,41.95730],[-87.89026,41.95809],[-87.89279,41.95802],[-87.89289,41.95785],[-87.89287,41.95079],[-87.90377,41.95061],[-87.91207,41.95232],[-87.91220,41.95229],[-87.91229,41.95216],[-87.91228,41.95143],[-87.91473,41.95202],[-87.91479,41.95471],[-87.91496,41.95582],[-87.91524,41.95683],[-87.91578,41.95713],[-87.91656,41.95740],[-87.91999,41.95801],[-87.92017,41.95817],[-87.92196,41.95835],[-87.92215,41.95823],[-87.92216,41.95387],[-87.92635,41.95486],[-87.92639,41.95896],[-87.92652,41.95904],[-87.93208,41.95994],[-87.93226,41.96468],[-87.93244,41.96479],[-87.93477,41.96480],[-87.93476,41.96646],[-87.93485,41.96660],[-87.93506,41.96661],[-87.93679,41.96541],[-87.93812,41.96427],[-87.93971,41.96428],[-87.93971,41.97863],[-87.93993,41.99349],[-87.93894,41.99353],[-87.93880,41.99361],[-87.93817,41.99579],[-87.93761,41.99703],[-87.93684,41.99839],[-87.93691,41.99853],[-87.93705,41.99858],[-87.94001,41.99810],[-87.94011,42.00078]],[[-87.69581,41.69893],[-87.69595,41.69886],[-87.69601,41.69872],[-87.69573,41.69180],[-87.69556,41.69171],[-87.69227,41.69175],[-87.69210,41.69188],[-87.69210,41.69220],[-87.69110,41.69231],[-87.69101,41.69248],[-87.69126,41.69889],[-87.69143,41.69897],[-87.69581,41.69893]],[[-87.84656,41.96661],[-87.84649,41.96646],[-87.84635,41.96641],[-87.83668,41.96659],[-87.83668,41.95950],[-87.83649,41.95936],[-87.83267,41.95943],[-87.83182,41.95570],[-87.83179,41.95236],[-87.83174,41.95223],[-87.83160,41.95216],[-87.80744,41.95277],[-87.80728,41.95293],[-87.80729,41.95386],[-87.79444,41.95998],[-87.79419,41.96005],[-87.78700,41.96021],[-87.78688,41.96026],[-87.78681,41.96040],[-87.78689,41.96268],[-87.78704,41.96330],[-87.78682,41.96344],[-87.78676,41.96357],[-87.78673,41.96733],[-87.78675,41.96824],[-87.78684,41.96839],[-87.78801,41.96841],[-87.78802,41.96876],[-87.78821,41.96888],[-87.80232,41.96877],[-87.80251,41.96865],[-87.80254,41.96829],[-87.80715,41.96826],[-87.80706,41.97433],[-87.80710,41.97446],[-87.80724,41.97453],[-87.81678,41.97428],[-87.81692,41.97409],[-87.81695,41.97066],[-87.81898,41.97060],[-87.81897,41.97305],[-87.81911,41.97321],[-87.81943,41.97321],[-87.81942,41.97405],[-87.81959,41.97421],[-87.82656,41.97403],[-87.82673,41.97388],[-87.82674,41.97314],[-87.83172,41.97305],[-87.83172,41.97376],[-87.83183,41.97392],[-87.83341,41.97392],[-87.83342,41.97477],[-87.83362,41.97491],[-87.83364,41.97524],[-87.83379,41.97536],[-87.83646,41.97531],[-87.83661,41.97517],[-87.83663,41.97477],[-87.84139,41.97468],[-87.84155,41.97449],[-87.84155,41.97395],[-87.84141,41.97380],[-87.83793,41.97384],[-87.83794,41.97149],[-87.83776,41.97135],[-87.83664,41.97136],[-87.83665,41.97023],[-87.84158,41.97014],[-87.84157,41.97178],[-87.84170,41.97195],[-87.84639,41.97188],[-87.84653,41.97169],[-87.84656,41.96661]],[[-87.83434,41.98115],[-87.83439,41.98062],[-87.83422,41.98051],[-87.82885,41.98060],[-87.82882,41.98041],[-87.82869,41.98032],[-87.82867,41.97939],[-87.82853,41.97929],[-87.82808,41.97929],[-87.82808,41.97912],[-87.82849,41.97911],[-87.82862,41.97903],[-87.82863,41.97843],[-87.82957,41.97841],[-87.82969,41.97831],[-87.82971,41.97813],[-87.83001,41.97803],[-87.83002,41.97745],[-87.82989,41.97733],[-87.82960,41.97733],[-87.82960,41.97695],[-87.83345,41.97688],[-87.83361,41.97671],[-87.83361,41.97610],[-87.83351,41.97594],[-87.82456,41.97607],[-87.82440,41.97624],[-87.82354,41.98292],[-87.82372,41.98308],[-87.82519,41.98304],[-87.82529,41.98288],[-87.82527,41.98196],[-87.82813,41.98191],[-87.82815,41.98360],[-87.82827,41.98376],[-87.83302,41.98370],[-87.83356,41.98346],[-87.83359,41.98266],[-87.83489,41.98267],[-87.83505,41.98255],[-87.83507,41.98127],[-87.83492,41.98115],[-87.83434,41.98115]]]}}]}